{
  "40258": [
    {
      "epoch": "2025-12-03T12:13:38.836121+00:00",
      "mean_motion": 0.99116845,
      "eccentricity": 0.0004122,
      "inclination": 1.3855,
      "raan": 85.018,
      "arg_perigee": 156.5487,
      "mean_anomaly": 232.1054,
      "bstar": 0.0,
      "tle_line1": "1 40258U 14058A   25337.50947727  .00000076  00000-0  00000+0 0  9990",
      "tle_line2": "2 40258   1.3855  85.0180 0004122 156.5487 232.1054  0.99116845 39035",
      "norad_id": 40258,
      "object_name": "LUCH (OLYMP)"
    },
    {
      "epoch": "2025-12-03T13:58:40.573059+00:00",
      "mean_motion": 0.9911688000000001,
      "eccentricity": 0.0004122,
      "inclination": 1.3857000000000002,
      "raan": 85.0161,
      "arg_perigee": 156.6296,
      "mean_anomaly": 258.0523,
      "bstar": 0.0,
      "tle_line1": "1 40258U 14058A   25337.58241404  .00000075  00000-0  00000+0 0  9996",
      "tle_line2": "2 40258   1.3857  85.0161 0004122 156.6296 258.0523  0.99116880 39032",
      "norad_id": 40258,
      "object_name": "LUCH (OLYMP)"
    },
    {
      "epoch": "2025-12-03T16:29:53.939026+00:00",
      "mean_motion": 0.99116936,
      "eccentricity": 0.0004121,
      "inclination": 1.3861,
      "raan": 85.0137,
      "arg_perigee": 156.7301,
      "mean_anomaly": 295.4267,
      "bstar": 0.0,
      "tle_line1": "1 40258U 14058A   25337.68742985  .00000074  00000-0  00000+0 0  9996",
      "tle_line2": "2 40258   1.3861  85.0137 0004121 156.7301 295.4267  0.99116936 39039",
      "norad_id": 40258,
      "object_name": "LUCH (OLYMP)"
    },
    {
      "epoch": "2025-12-04T16:27:03.951355+00:00",
      "mean_motion": 0.99117378,
      "eccentricity": 0.000414,
      "inclination": 1.3891,
      "raan": 85.0027,
      "arg_perigee": 157.83730000000003,
      "mean_anomaly": 290.4577,
      "bstar": 0.0,
      "tle_line1": "1 40258U 14058A   25338.68546240  .00000055  00000-0  00000+0 0  9992",
      "tle_line2": "2 40258   1.3891  85.0027 0004140 157.8373 290.4577  0.99117378 39043",
      "norad_id": 40258,
      "object_name": "LUCH (OLYMP)"
    },
    {
      "epoch": "2025-12-04T16:27:03.951355+00:00",
      "mean_motion": 0.99117378,
      "eccentricity": 0.000414,
      "inclination": 1.3891,
      "raan": 85.0027,
      "arg_perigee": 157.83730000000003,
      "mean_anomaly": 290.4577,
      "bstar": 0.0,
      "tle_line1": "1 40258U 14058A   25338.68546240  .00000055  00000-0  00000+0 0  9992",
      "tle_line2": "2 40258   1.3891  85.0027 0004140 157.8373 290.4577  0.99117378 39043",
      "norad_id": 40258,
      "object_name": "LUCH (OLYMP)"
    },
    {
      "epoch": "2025-12-05T02:42:59.438019+00:00",
      "mean_motion": 0.9911758999999999,
      "eccentricity": 0.000414,
      "inclination": 1.3904,
      "raan": 84.9981,
      "arg_perigee": 158.29810000000003,
      "mean_anomaly": 82.62660000000001,
      "bstar": 0.0,
      "tle_line1": "1 40258U 14058A   25339.11318794  .00000047  00000-0  00000+0 0  9993",
      "tle_line2": "2 40258   1.3904  84.9981 0004140 158.2981  82.6266  0.99117590 39047",
      "norad_id": 40258,
      "object_name": "LUCH (OLYMP)"
    },
    {
      "epoch": "2025-12-05T16:24:05.448120+00:00",
      "mean_motion": 0.9911787599999999,
      "eccentricity": 0.0004141,
      "inclination": 1.3921,
      "raan": 84.9907,
      "arg_perigee": 158.8908,
      "mean_anomaly": 285.5098,
      "bstar": 0.0,
      "tle_line1": "1 40258U 14058A   25339.68339639  .00000034  00000-0  00000+0 0  9992",
      "tle_line2": "2 40258   1.3921  84.9907 0004141 158.8908 285.5098  0.99117876 39055",
      "norad_id": 40258,
      "object_name": "LUCH (OLYMP)"
    },
    {
      "epoch": "2025-12-06T16:21:02.298218+00:00",
      "mean_motion": 0.99118412,
      "eccentricity": 0.0004122,
      "inclination": 1.3951,
      "raan": 84.9781,
      "arg_perigee": 159.8393,
      "mean_anomaly": 280.6501,
      "bstar": 0.0,
      "tle_line1": "1 40258U 14058A   25340.68127660  .00000010  00000-0  00000+0 0  9997",
      "tle_line2": "2 40258   1.3951  84.9781 0004122 159.8393 280.6501  0.99118412 39069",
      "norad_id": 40258,
      "object_name": "LUCH (OLYMP)"
    },
    {
      "epoch": "2025-12-07T16:17:59.657288+00:00",
      "mean_motion": 0.99118972,
      "eccentricity": 0.0004087,
      "inclination": 1.3981,
      "raan": 84.9655,
      "arg_perigee": 160.6676,
      "mean_anomaly": 275.9146,
      "bstar": 0.0,
      "tle_line1": "1 40258U 14058A   25341.67916270 -.00000016  00000-0  00000+0 0  9997",
      "tle_line2": "2 40258   1.3981  84.9655 0004087 160.6676 275.9146  0.99118972 39070",
      "norad_id": 40258,
      "object_name": "LUCH (OLYMP)"
    },
    {
      "epoch": "2025-12-08T17:57:37.700928+00:00",
      "mean_motion": 0.99119582,
      "eccentricity": 0.0004035,
      "inclination": 1.4012,
      "raan": 84.9537,
      "arg_perigee": 161.4289,
      "mean_anomaly": 296.6915,
      "bstar": 0.0,
      "tle_line1": "1 40258U 14058A   25342.74835302 -.00000043  00000-0  00000+0 0  9992",
      "tle_line2": "2 40258   1.4012  84.9537 0004035 161.4289 296.6915  0.99119582 39080",
      "norad_id": 40258,
      "object_name": "LUCH (OLYMP)"
    },
    {
      "epoch": "2025-12-09T04:17:30.910278+00:00",
      "mean_motion": 0.99119839,
      "eccentricity": 0.0004,
      "inclination": 1.4024000000000003,
      "raan": 84.949,
      "arg_perigee": 161.70320000000004,
      "mean_anomaly": 90.0323,
      "bstar": 0.0,
      "tle_line1": "1 40258U 14058A   25343.17882998 -.00000054  00000-0  00000+0 0  9995",
      "tle_line2": "2 40258   1.4024  84.9490 0004000 161.7032  90.0323  0.99119839 39086",
      "norad_id": 40258,
      "object_name": "LUCH (OLYMP)"
    },
    {
      "epoch": "2025-12-09T12:24:38.714417+00:00",
      "mean_motion": 0.99120004,
      "eccentricity": 0.0003991,
      "inclination": 1.4034,
      "raan": 84.9473,
      "arg_perigee": 161.8756,
      "mean_anomaly": 210.5748,
      "bstar": 0.0,
      "tle_line1": "1 40258U 14058A   25343.51711475 -.00000063  00000-0  00000+0 0  9994",
      "tle_line2": "2 40258   1.4034  84.9473 0003991 161.8756 210.5748  0.99120004 39097",
      "norad_id": 40258,
      "object_name": "LUCH (OLYMP)"
    },
    {
      "epoch": "2025-12-09T14:29:17.419769+00:00",
      "mean_motion": 0.99120056,
      "eccentricity": 0.0003988,
      "inclination": 1.4036,
      "raan": 84.9459,
      "arg_perigee": 161.9352,
      "mean_anomaly": 241.4043,
      "bstar": 0.0,
      "tle_line1": "1 40258U 14058A   25343.60367384 -.00000065  00000-0  00000+0 0  9992",
      "tle_line2": "2 40258   1.4036  84.9459 0003988 161.9352 241.4043  0.99120056 39090",
      "norad_id": 40258,
      "object_name": "LUCH (OLYMP)"
    },
    {
      "epoch": "2025-12-09T15:26:03.997223+00:00",
      "mean_motion": 0.99120079,
      "eccentricity": 0.0003986,
      "inclination": 1.4037,
      "raan": 84.9452,
      "arg_perigee": 161.9658,
      "mean_anomaly": 255.44390000000004,
      "bstar": 0.0,
      "tle_line1": "1 40258U 14058A   25343.64310182 -.00000066  00000-0  00000+0 0  9991",
      "tle_line2": "2 40258   1.4037  84.9452 0003986 161.9658 255.4439  0.99120079 39090",
      "norad_id": 40258,
      "object_name": "LUCH (OLYMP)"
    },
    {
      "epoch": "2025-12-10T04:28:26.954102+00:00",
      "mean_motion": 0.99120391,
      "eccentricity": 0.0003942,
      "inclination": 1.4052,
      "raan": 84.94,
      "arg_perigee": 162.2819,
      "mean_anomaly": 89.0117,
      "bstar": 0.0,
      "tle_line1": "1 40258U 14058A   25344.18642308 -.00000080  00000-0  00000+0 0  9995",
      "tle_line2": "2 40258   1.4052  84.9400 0003942 162.2819  89.0117  0.99120391 39096",
      "norad_id": 40258,
      "object_name": "LUCH (OLYMP)"
    },
    {
      "epoch": "2025-12-10T12:50:52.880096+00:00",
      "mean_motion": 0.99120549,
      "eccentricity": 0.0003929,
      "inclination": 1.4062,
      "raan": 84.9383,
      "arg_perigee": 162.4593,
      "mean_anomaly": 213.3418,
      "bstar": 0.0,
      "tle_line1": "1 40258U 14058A   25344.53533426 -.00000089  00000-0  00000+0 0  9993",
      "tle_line2": "2 40258   1.4062  84.9383 0003929 162.4593 213.3418  0.99120549 39106",
      "norad_id": 40258,
      "object_name": "LUCH (OLYMP)"
    },
    {
      "epoch": "2025-12-10T12:50:52.880096+00:00",
      "mean_motion": 0.99120549,
      "eccentricity": 0.0003929,
      "inclination": 1.4062,
      "raan": 84.9383,
      "arg_perigee": 162.4593,
      "mean_anomaly": 213.3418,
      "bstar": 0.0,
      "tle_line1": "1 40258U 14058A   25344.53533426 -.00000089  00000-0  00000+0 0  9993",
      "tle_line2": "2 40258   1.4062  84.9383 0003929 162.4593 213.3418  0.99120549 39106",
      "norad_id": 40258,
      "object_name": "LUCH (OLYMP)"
    },
    {
      "epoch": "2025-12-10T16:08:51.321411+00:00",
      "mean_motion": 0.9912062799999999,
      "eccentricity": 0.0003923,
      "inclination": 1.4066,
      "raan": 84.9365,
      "arg_perigee": 162.5556,
      "mean_anomaly": 262.3066,
      "bstar": 0.0,
      "tle_line1": "1 40258U 14058A   25344.67281622 -.00000092  00000-0  00000+0 0  9990",
      "tle_line2": "2 40258   1.4066  84.9365 0003923 162.5556 262.3066  0.99120628 39105",
      "norad_id": 40258,
      "object_name": "LUCH (OLYMP)"
    },
    {
      "epoch": "2025-12-11T04:21:38.620789+00:00",
      "mean_motion": 0.9912090600000001,
      "eccentricity": 0.0003881,
      "inclination": 1.4079,
      "raan": 84.9321,
      "arg_perigee": 162.8264,
      "mean_anomaly": 83.6302,
      "bstar": 0.0,
      "tle_line1": "1 40258U 14058A   25345.18169700 -.00000105  00000-0  00000+0 0  9994",
      "tle_line2": "2 40258   1.4079  84.9321 0003881 162.8264  83.6302  0.99120906 39109",
      "norad_id": 40258,
      "object_name": "LUCH (OLYMP)"
    }
  ],
  "44878": []
}